[{"OBJECT_NAME":"PROPCUBE 1 (FLORA)","OBJECT_ID":"2015-058N","EPOCH":"2026-03-09T22:10:52.593312","MEAN_MOTION":14.88641208,"ECCENTRICITY":0.01301152,"INCLINATION":64.774,"RA_OF_ASC_NODE":242.7389,"ARG_OF_PERICENTER":100.0601,"MEAN_ANOMALY":261.522,"EPHEMERIS_TYPE":0,"CLASSIFICATION_TYPE":"U","NORAD_CAT_ID":40976,"ELEMENT_SET_NO":999,"REV_AT_EPOCH":10148,"BSTAR":0.00044491072,"MEAN_MOTION_DOT":4.703e-5,"MEAN_MOTION_DDOT":0},{"OBJECT_NAME":"STARLINK-3161","OBJECT_ID":"2021-104Q","EPOCH":"2026-03-09T17:27:48.361248","MEAN_MOTION":15.08835383,"ECCENTRICITY":0.00012192,"INCLINATION":53.2168,"RA_OF_ASC_NODE":229.2684,"ARG_OF_PERICENTER":97.5289,"MEAN_ANOMALY":262.5841,"EPHEMERIS_TYPE":0,"CLASSIFICATION_TYPE":"U","NORAD_CAT_ID":49422,"ELEMENT_SET_NO":999,"REV_AT_EPOCH":23862,"BSTAR":1.2726605e-5,"MEAN_MOTION_DOT":-8.5e-7,"MEAN_MOTION_DDOT":0}]
