PROPCUBE 1 (FLORA)      
1 40976U 15058N   26068.92421983  .00004703  00000+0  44491-3 0  9993
2 40976  64.7740 242.7389 0130115 100.0601 261.5220 14.88641208101484
STARLINK-3161           
1 49422U 21104Q   26068.72764307 -.00000085  00000+0  12727-4 0  9993
2 49422  53.2168 229.2684 0001219  97.5289 262.5841 15.08835383238627
